NORAD_CAT_ID,OBJECT_NAME,OBJECT_TYPE,EPOCH,MEAN_MOTION,ECCENTRICITY,INCLINATION,RA_OF_ASC_NODE,ARG_OF_PERICENTER,MEAN_ANOMALY,BSTAR,MEAN_MOTION_DOT,MEAN_MOTION_DDOT,TLE_LINE0,TLE_LINE1,TLE_LINE2,SEMIMAJOR_AXIS,PERIOD,APOGEE,PERIGEE,DECAYED
53166.0,STARLINK-4110,PAYLOAD,2024-07-23 07:43:26,15.08823018,0.0001283,53.2149,312.3372,104.2252,255.8882,-0.00022471,-3.861e-05,0.0,0 STARLINK-4110,1 53166U 22083AL  24205.32183313 -.00003861  00000-0 -22471-3 0  9992,2 53166  53.2149 312.3372 0001283 104.2252 255.8882 15.08823018112264,6917.932,95.439,540.685,538.91,0.0
53166.0,STARLINK-4110,PAYLOAD,2024-07-23 14:04:58,15.08828896,0.0001021,53.2159,311.1507,80.8325,279.2782,-6.2058e-05,-1.275e-05,0.0,0 STARLINK-4110,1 53166U 22083AL  24205.58679294 -.00001275  00000-0 -62058-4 0  9991,2 53166  53.2159 311.1507 0001021  80.8325 279.2782 15.08828896111674,6917.914,95.438,540.486,539.073,0.0
53166.0,STARLINK-4110,PAYLOAD,2024-07-25 10:35:46,15.08845083,0.0001379,53.2163,302.828,89.2299,270.8851,0.00025478,3.77e-05,0.0,0 STARLINK-4110,1 53166U 22083AL  24207.44151375  .00003770  00000-0  25478-3 0  9997,2 53166  53.2163 302.8280 0001379  89.2299 270.8851 15.08845083112585,6917.865,95.437,540.684,538.776,0.0
53166.0,STARLINK-4110,PAYLOAD,2024-07-25 16:57:19,15.08849768,0.0001256,53.2169,301.633,61.635,298.4769,0.00028821,4.303e-05,0.0,0 STARLINK-4110,1 53166U 22083AL  24207.70647101  .00004303  00000-0  28821-3 0  9991,2 53166  53.2169 301.6330 0001256  61.6350 298.4769 15.08849768111992,6917.851,95.437,540.584,538.847,0.0
53166.0,STARLINK-4110,PAYLOAD,2024-07-25 23:18:52,15.08842531,8.91e-05,53.2164,300.4492,94.8301,265.2793,0.00014113,1.959e-05,0.0,0 STARLINK-4110,1 53166U 22083AL  24207.97143672  .00001959  00000-0  14113-3 0  9997,2 53166  53.2164 300.4492 0000891  94.8301 265.2793 15.08842531112666,6917.873,95.437,540.354,539.121,0.0
53166.0,STARLINK-4110,PAYLOAD,2024-07-26 10:26:33,15.08847685,0.000154,53.2161,298.3629,81.4616,278.6551,0.00014957,2.094e-05,0.0,0 STARLINK-4110,1 53166U 22083AL  24208.43510875  .00002094  00000-0  14957-3 0  9999,2 53166  53.2161 298.3629 0001540  81.4616 278.6551 15.08847685112736,6917.857,95.437,540.787,538.657,0.0
53166.0,STARLINK-4110,PAYLOAD,2024-07-26 15:12:42,15.08855145,0.0001969,53.2157,297.471,82.3151,277.8065,0.00016302,2.308e-05,0.0,0 STARLINK-4110,1 53166U 22083AL  24208.63382378  .00002308  00000-0  16302-3 0  9990,2 53166  53.2157 297.4710 0001969  82.3151 277.8065 15.08855145112765,6917.834,95.437,541.061,538.337,0.0
53166.0,STARLINK-4110,PAYLOAD,2024-07-27 10:17:20,15.08841378,0.0001653,53.2171,293.9016,79.1217,280.9961,-1.3233e-05,-4.99e-06,0.0,0 STARLINK-4110,1 53166U 22083AL  24209.42870809 -.00000499  00000-0 -13233-4 0  9991,2 53166  53.2171 293.9016 0001653  79.1217 280.9961 15.08841378112884,6917.876,95.437,540.885,538.598,0.0
53166.0,STARLINK-4110,PAYLOAD,2024-07-27 15:03:29,15.08844268,0.0001734,53.2173,293.0084,85.4913,274.6277,1.2291e-05,-9.2e-07,0.0,0 STARLINK-4110,1 53166U 22083AL  24209.62742602 -.00000092  00000-0  12291-4 0  9993,2 53166  53.2173 293.0084 0001734  85.4913 274.6277 15.08844268112280,6917.867,95.437,540.932,538.533,0.0
53166.0,STARLINK-4110,PAYLOAD,2024-07-28 11:43:30,15.08841161,0.0001641,53.2154,289.1436,96.5424,263.5755,-5.3862e-06,-3.74e-06,0.0,0 STARLINK-4110,1 53166U 22083AL  24210.48854635 -.00000374  00000-0 -53862-5 0  9993,2 53166  53.2154 289.1436 0001641  96.5424 263.5755 15.08841161113045,6917.877,95.437,540.877,538.607,0.0
53166.0,STARLINK-4110,PAYLOAD,2024-07-28 13:18:54,15.08802736,0.0002183,53.2181,288.8444,115.9677,244.154,0.00063853,9.879e-05,0.0,0 STARLINK-4110,1 53166U 22083AL  24210.55479733  .00009879  00000-0  63853-3 0  9999,2 53166  53.2181 288.8444 0002183 115.9677 244.1540 15.08802736113051,6917.994,95.44,541.369,538.349,0.0
53166.0,STARLINK-4110,PAYLOAD,2024-07-29 11:34:17,15.08840779,0.0001626,53.2172,284.6835,100.1697,259.9478,6.7445e-05,7.86e-06,0.0,0 STARLINK-4110,1 53166U 22083AL  24211.48214821  .00000786  00000-0  67445-4 0  9997,2 53166  53.2172 284.6835 0001626 100.1697 259.9478 15.08840779113196,6917.878,95.438,540.868,538.618,0.0
53166.0,STARLINK-4110,PAYLOAD,2024-07-29 13:09:40,15.08841823,0.0001648,53.2171,284.3867,99.3575,260.7603,7.4491e-05,8.98e-06,0.0,0 STARLINK-4110,1 53166U 22083AL  24211.54838761  .00000898  00000-0  74491-4 0  9992,2 53166  53.2171 284.3867 0001648  99.3575 260.7603 15.08841823112577,6917.875,95.437,540.88,538.6,0.0
53166.0,STARLINK-4110,PAYLOAD,2024-07-29 14:45:03,15.08841374,0.0001656,53.2172,284.0897,99.2108,260.9072,6.6908e-05,7.77e-06,0.0,0 STARLINK-4110,1 53166U 22083AL  24211.61462800  .00000777  00000-0  66908-4 0  9997,2 53166  53.2172 284.0897 0001656  99.2108 260.9072 15.08841374112582,6917.876,95.437,540.887,538.596,0.0
53166.0,STARLINK-4110,PAYLOAD,2024-07-30 11:25:04,15.08838829,0.0001426,53.2171,280.2257,90.0459,270.0696,6.6216e-05,7.66e-06,0.0,0 STARLINK-4110,1 53166U 22083AL  24212.47575190  .00000766  00000-0  66216-4 0  9999,2 53166  53.2171 280.2257 0001426  90.0459 270.0696 15.08838829113342,6917.884,95.438,540.735,538.762,0.0
53166.0,STARLINK-4110,PAYLOAD,2024-07-31 11:15:52,15.08837339,0.0001338,53.2164,275.7674,87.1008,273.0137,2.0204e-05,3.4e-07,0.0,0 STARLINK-4110,1 53166U 22083AL  24213.46935876  .00000034  00000-0  20204-4 0  9995,2 53166  53.2164 275.7674 0001338  87.1008 273.0137 15.08837339113499,6917.889,95.438,540.679,538.828,0.0
53166.0,STARLINK-4110,PAYLOAD,2024-07-31 20:48:11,15.08841403,0.0001331,53.217,273.9837,88.2012,271.9133,2.1269e-05,5.1e-07,0.0,0 STARLINK-4110,1 53166U 22083AL  24213.86679674  .00000051  00000-0  21269-4 0  9991,2 53166  53.2170 273.9837 0001331  88.2012 271.9133 15.08841403112924,6917.876,95.437,540.662,538.82,0.0
53166.0,STARLINK-4110,PAYLOAD,2024-08-01 11:06:38,15.08850081,0.0001268,53.2165,271.3084,88.3306,271.7831,0.00022456,3.289e-05,0.0,0 STARLINK-4110,1 53166U 22083AL  24214.46294793  .00003289  00000-0  22456-3 0  9997,2 53166  53.2165 271.3084 0001268  88.3306 271.7831 15.08850081113645,6917.85,95.437,540.592,538.837,0.0
53166.0,STARLINK-4110,PAYLOAD,2024-08-01 20:38:57,15.08851509,0.0001192,53.2159,269.5244,92.3841,267.7287,0.00014335,1.995e-05,0.0,0 STARLINK-4110,1 53166U 22083AL  24214.86038711  .00001995  00000-0  14335-3 0  9996,2 53166  53.2159 269.5244 0001192  92.3841 267.7287 15.08851509113073,6917.845,95.437,540.535,538.886,0.0
53166.0,STARLINK-4110,PAYLOAD,2024-08-02 12:32:49,15.08841205,0.0001422,53.2155,266.5512,89.2041,270.9114,7.6065e-05,9.23e-06,0.0,0 STARLINK-4110,1 53166U 22083AL  24215.52279613  .00000923  00000-0  76065-4 0  9997,2 53166  53.2155 266.5512 0001422  89.2041 270.9114 15.08841205113805,6917.877,95.437,540.725,538.758,0.0
53166.0,STARLINK-4110,PAYLOAD,2024-08-02 20:29:45,15.08840678,0.000146,53.2156,265.0643,88.1602,271.9557,6.8713e-05,8.06e-06,0.0,0 STARLINK-4110,1 53166U 22083AL  24215.85399703  .00000806  00000-0  68713-4 0  9997,2 53166  53.2156 265.0643 0001460  88.1602 271.9557 15.08840678113229,6917.878,95.438,540.753,538.733,0.0
53166.0,STARLINK-4110,PAYLOAD,2024-08-03 12:23:36,15.08848854,0.0001518,53.2155,262.0879,82.7745,277.342,0.00015424,2.168e-05,0.0,0 STARLINK-4110,1 53166U 22083AL  24216.51639207  .00002168  00000-0  15424-3 0  9990,2 53166  53.2155 262.0879 0001518  82.7745 277.3420 15.08848854113322,6917.853,95.437,540.768,538.668,0.0
53166.0,STARLINK-4110,PAYLOAD,2024-08-03 20:20:32,15.08842427,0.0001463,53.2152,260.5983,80.0394,280.0763,7.1954e-05,8.57e-06,0.0,0 STARLINK-4110,1 53166U 22083AL  24216.84759474  .00000857  00000-0  71954-4 0  9999,2 53166  53.2152 260.5983 0001463  80.0394 280.0763 15.08842427114005,6917.873,95.437,540.75,538.726,0.0
53166.0,STARLINK-4110,PAYLOAD,2024-08-04 09:03:37,15.0884185,0.0001533,53.2142,258.2208,80.084,280.0325,0.00020443,2.967e-05,0.0,0 STARLINK-4110,1 53166U 22083AL  24217.37751749  .00002967  00000-0  20443-3 0  9995,2 53166  53.2142 258.2208 0001533  80.0840 280.0325 15.08841850113453,6917.875,95.437,540.8,538.679,0.0
53166.0,STARLINK-4110,PAYLOAD,2024-08-04 20:11:19,15.0885212,0.0001413,53.2144,256.1398,82.8621,277.2532,0.00026874,3.993e-05,0.0,0 STARLINK-4110,1 53166U 22083AL  24217.84119252  .00003993  00000-0  26874-3 0  9998,2 53166  53.2144 256.1398 0001413  82.8621 277.2532 15.08852120113524,6917.843,95.437,540.686,538.731,0.0
53166.0,STARLINK-4110,PAYLOAD,2024-08-05 02:32:51,15.08849872,0.0001529,53.2145,254.9518,81.1729,278.9436,0.00029546,4.419e-05,0.0,0 STARLINK-4110,1 53166U 22083AL  24218.10615423  .00004419  00000-0  29546-3 0  9992,2 53166  53.2145 254.9518 0001529  81.1729 278.9436 15.08849872114199,6917.85,95.437,540.773,538.657,0.0
53166.0,STARLINK-4110,PAYLOAD,2024-08-05 20:02:06,15.08841963,0.000147,53.2138,251.6801,84.8601,275.2558,7.689e-05,9.36e-06,0.0,0 STARLINK-4110,1 53166U 22083AL  24218.83479474  .00000936  00000-0  76890-4 0  9991,2 53166  53.2138 251.6801 0001470  84.8601 275.2558 15.08841963114305,6917.874,95.437,540.756,538.722,0.0
53166.0,STARLINK-4110,PAYLOAD,2024-08-06 03:59:02,15.08828054,0.0001453,53.2148,250.1938,89.4804,270.6355,-0.00015857,-2.81e-05,0.0,0 STARLINK-4110,1 53166U 22083AL  24219.16600166 -.00002810  00000-0 -15857-3 0  9992,2 53166  53.2148 250.1938 0001453  89.4804 270.6355 15.08828054114353,6917.917,95.438,540.787,538.777,0.0
53166.0,STARLINK-4110,PAYLOAD,2024-08-06 13:31:21,15.08831815,0.0001477,53.2144,248.4092,89.2914,270.8247,-3.6855e-05,-8.74e-06,0.0,0 STARLINK-4110,1 53166U 22083AL  24219.56344292 -.00000874  00000-0 -36855-4 0  9991,2 53166  53.2144 248.4092 0001477  89.2914 270.8247 15.08831815113783,6917.905,95.438,540.792,538.749,0.0
53166.0,STARLINK-4110,PAYLOAD,2024-08-06 21:28:17,15.08835926,0.0001469,53.2146,246.9224,89.1591,270.957,1.8798e-05,1.1e-07,0.0,0 STARLINK-4110,1 53166U 22083AL  24219.89464380  .00000011  00000-0  18798-4 0  9995,2 53166  53.2146 246.9224 0001469  89.1591 270.9570 15.08835926113839,6917.893,95.438,540.774,538.742,0.0
